ONEWEB-0058             
1 45161U 20008AG  26085.36277624  .00001547  00000+0  43943-2 0  9996
2 45161  87.8801  52.7632 0002193  85.5377 274.6001 13.10384573297571
ONEWEB-0059             
1 45162U 20008AH  26085.35934764  .00000703  00000+0  19780-2 0  9996
2 45162  87.8799  52.7642 0001889  88.8557 271.2787 13.10373306297471
ONEWEB-0062             
1 45163U 20008AJ  26085.38504860 -.00000364  00000+0 -10800-2 0  9999
2 45163  87.8801  52.7425 0002324  83.5545 276.5847 13.10369707297340
ONEWEB-0065             
1 45164U 20008AK  26085.41562655  .00000106  00000+0  26865-3 0  9991
2 45164  87.8805  52.7441 0001556  76.7860 283.3440 13.10376847297048
ONEWEB-0066             
1 45424U 20020A   26085.36470154 -.00000241  00000+0 -71599-3 0  9996
2 45424  87.8902  37.5304 0001881  85.5289 274.6054 13.11419099291820
ONEWEB-0067             
1 45425U 20020B   26085.32527004  .00075022  00000+0  20824+0 0  9998
2 45425  87.8916  37.4484 0001251 269.1255  90.9730 13.11972668291879
ONEWEB-0080             
1 45426U 20020C   26085.58334490 -.00047277  00000+0 -13389+0 0  9993
2 45426  87.8891  37.4799 0002085  77.6936  57.6872 13.11531473  5230
ONEWEB-0090             
1 45427U 20020D   26085.35466725 -.00000357  00000+0 -10431-2 0  9992
2 45427  87.8898  37.5307 0001911  80.5200 279.6144 13.11416897291819
ONEWEB-0061             
1 45428U 20020E   26085.31031721  .00000595  00000+0  16421-2 0  9990
2 45428  87.8895  37.5256 0001917  81.1299 279.0046 13.11416523291766
ONEWEB-0081             
1 45429U 20020F   26085.36808795 -.00000122  00000+0 -38002-3 0  9997
2 45429  87.8891  37.5293 0001745  86.1558 273.9769 13.11416225291883
ONEWEB-0069             
1 45430U 20020G   26085.35705598 -.00000400  00000+0 -11659-2 0  9992
2 45430  87.8898  37.5260 0001800  82.3032 277.8300 13.11416204291817
ONEWEB-0031             
1 45431U 20020H   26085.40539994  .00000241  00000+0  64361-3 0  9994
2 45431  87.8885  37.5328 0002062  79.1080 281.0280 13.11415850291806
ONEWEB-0027             
1 45432U 20020J   26085.38357734  .00000024  00000+0  28942-4 0  9997
2 45432  87.9185  22.2862 0002094  70.0196 290.1161 13.17650981295454
ONEWEB-0064             
1 45433U 20020K   26085.40370576  .00000340  00000+0  92456-3 0  9991
2 45433  87.8885  37.5236 0002016  77.1183 283.0170 13.11415987291831
ONEWEB-0018             
1 45434U 20020L   26085.35961860 -.00000384  00000+0 -11185-2 0  9997
2 45434  87.8895  37.5306 0002090  90.8576 269.2792 13.11419503291778
ONEWEB-0083             
1 45435U 20020M   26085.35029570 -.00000421  00000+0 -12231-2 0  9996
2 45435  87.8903  37.5210 0001966  80.8665 279.2685 13.11416279291816
ONEWEB-0095             
1 45436U 20020N   26085.41739023 -.00000289  00000+0 -84989-3 0  9997
2 45436  87.8894  37.5158 0001729  55.9638 304.1653 13.11413941291824
