[{"OBJECT_NAME":"ONEWEB-0058","OBJECT_ID":"2020-008AG","EPOCH":"2026-03-26T08:42:23.867136","MEAN_MOTION":13.10384573,"ECCENTRICITY":0.0002193,"INCLINATION":87.8801,"RA_OF_ASC_NODE":52.7632,"ARG_OF_PERICENTER":85.5377,"MEAN_ANOMALY":274.6001,"EPHEMERIS_TYPE":0,"CLASSIFICATION_TYPE":"U","NORAD_CAT_ID":45161,"ELEMENT_SET_NO":999,"REV_AT_EPOCH":29757,"BSTAR":0.0043943,"MEAN_MOTION_DOT":1.547e-5,"MEAN_MOTION_DDOT":0},{"OBJECT_NAME":"ONEWEB-0059","OBJECT_ID":"2020-008AH","EPOCH":"2026-03-26T08:37:27.636096","MEAN_MOTION":13.10373306,"ECCENTRICITY":0.0001889,"INCLINATION":87.8799,"RA_OF_ASC_NODE":52.7642,"ARG_OF_PERICENTER":88.8557,"MEAN_ANOMALY":271.2787,"EPHEMERIS_TYPE":0,"CLASSIFICATION_TYPE":"U","NORAD_CAT_ID":45162,"ELEMENT_SET_NO":999,"REV_AT_EPOCH":29747,"BSTAR":0.001978,"MEAN_MOTION_DOT":7.03e-6,"MEAN_MOTION_DDOT":0},{"OBJECT_NAME":"ONEWEB-0062","OBJECT_ID":"2020-008AJ","EPOCH":"2026-03-26T09:14:28.199040","MEAN_MOTION":13.10369707,"ECCENTRICITY":0.0002324,"INCLINATION":87.8801,"RA_OF_ASC_NODE":52.7425,"ARG_OF_PERICENTER":83.5545,"MEAN_ANOMALY":276.5847,"EPHEMERIS_TYPE":0,"CLASSIFICATION_TYPE":"U","NORAD_CAT_ID":45163,"ELEMENT_SET_NO":999,"REV_AT_EPOCH":29734,"BSTAR":-0.00108,"MEAN_MOTION_DOT":-3.64e-6,"MEAN_MOTION_DDOT":0},{"OBJECT_NAME":"ONEWEB-0065","OBJECT_ID":"2020-008AK","EPOCH":"2026-03-26T09:58:30.133920","MEAN_MOTION":13.10376847,"ECCENTRICITY":0.0001556,"INCLINATION":87.8805,"RA_OF_ASC_NODE":52.7441,"ARG_OF_PERICENTER":76.786,"MEAN_ANOMALY":283.344,"EPHEMERIS_TYPE":0,"CLASSIFICATION_TYPE":"U","NORAD_CAT_ID":45164,"ELEMENT_SET_NO":999,"REV_AT_EPOCH":29704,"BSTAR":0.00026865,"MEAN_MOTION_DOT":1.06e-6,"MEAN_MOTION_DDOT":0},{"OBJECT_NAME":"ONEWEB-0066","OBJECT_ID":"2020-020A","EPOCH":"2026-03-26T08:45:10.213056","MEAN_MOTION":13.11419099,"ECCENTRICITY":0.0001881,"INCLINATION":87.8902,"RA_OF_ASC_NODE":37.5304,"ARG_OF_PERICENTER":85.5289,"MEAN_ANOMALY":274.6054,"EPHEMERIS_TYPE":0,"CLASSIFICATION_TYPE":"U","NORAD_CAT_ID":45424,"ELEMENT_SET_NO":999,"REV_AT_EPOCH":29182,"BSTAR":-0.00071599,"MEAN_MOTION_DOT":-2.41e-6,"MEAN_MOTION_DDOT":0},{"OBJECT_NAME":"ONEWEB-0067","OBJECT_ID":"2020-020B","EPOCH":"2026-03-26T07:48:23.331456","MEAN_MOTION":13.11972668,"ECCENTRICITY":0.0001251,"INCLINATION":87.8916,"RA_OF_ASC_NODE":37.4484,"ARG_OF_PERICENTER":269.1255,"MEAN_ANOMALY":90.973,"EPHEMERIS_TYPE":0,"CLASSIFICATION_TYPE":"U","NORAD_CAT_ID":45425,"ELEMENT_SET_NO":999,"REV_AT_EPOCH":29187,"BSTAR":0.20824,"MEAN_MOTION_DOT":0.00075022,"MEAN_MOTION_DDOT":0},{"OBJECT_NAME":"ONEWEB-0080","OBJECT_ID":"2020-020C","EPOCH":"2026-03-26T14:00:00.999360","MEAN_MOTION":13.11531473,"ECCENTRICITY":0.0002085,"INCLINATION":87.8891,"RA_OF_ASC_NODE":37.4799,"ARG_OF_PERICENTER":77.6936,"MEAN_ANOMALY":57.6872,"EPHEMERIS_TYPE":0,"CLASSIFICATION_TYPE":"U","NORAD_CAT_ID":45426,"ELEMENT_SET_NO":999,"REV_AT_EPOCH":523,"BSTAR":-0.13389,"MEAN_MOTION_DOT":-0.00047277,"MEAN_MOTION_DDOT":0},{"OBJECT_NAME":"ONEWEB-0090","OBJECT_ID":"2020-020D","EPOCH":"2026-03-26T08:30:43.250400","MEAN_MOTION":13.11416897,"ECCENTRICITY":0.0001911,"INCLINATION":87.8898,"RA_OF_ASC_NODE":37.5307,"ARG_OF_PERICENTER":80.52,"MEAN_ANOMALY":279.6144,"EPHEMERIS_TYPE":0,"CLASSIFICATION_TYPE":"U","NORAD_CAT_ID":45427,"ELEMENT_SET_NO":999,"REV_AT_EPOCH":29181,"BSTAR":-0.0010431,"MEAN_MOTION_DOT":-3.57e-6,"MEAN_MOTION_DDOT":0},{"OBJECT_NAME":"ONEWEB-0061","OBJECT_ID":"2020-020E","EPOCH":"2026-03-26T07:26:51.406944","MEAN_MOTION":13.11416523,"ECCENTRICITY":0.0001917,"INCLINATION":87.8895,"RA_OF_ASC_NODE":37.5256,"ARG_OF_PERICENTER":81.1299,"MEAN_ANOMALY":279.0046,"EPHEMERIS_TYPE":0,"CLASSIFICATION_TYPE":"U","NORAD_CAT_ID":45428,"ELEMENT_SET_NO":999,"REV_AT_EPOCH":29176,"BSTAR":0.0016421,"MEAN_MOTION_DOT":5.95e-6,"MEAN_MOTION_DDOT":0},{"OBJECT_NAME":"ONEWEB-0081","OBJECT_ID":"2020-020F","EPOCH":"2026-03-26T08:50:02.798880","MEAN_MOTION":13.11416225,"ECCENTRICITY":0.0001745,"INCLINATION":87.8891,"RA_OF_ASC_NODE":37.5293,"ARG_OF_PERICENTER":86.1558,"MEAN_ANOMALY":273.9769,"EPHEMERIS_TYPE":0,"CLASSIFICATION_TYPE":"U","NORAD_CAT_ID":45429,"ELEMENT_SET_NO":999,"REV_AT_EPOCH":29188,"BSTAR":-0.00038002,"MEAN_MOTION_DOT":-1.22e-6,"MEAN_MOTION_DDOT":0},{"OBJECT_NAME":"ONEWEB-0069","OBJECT_ID":"2020-020G","EPOCH":"2026-03-26T08:34:09.636672","MEAN_MOTION":13.11416204,"ECCENTRICITY":0.00018,"INCLINATION":87.8898,"RA_OF_ASC_NODE":37.526,"ARG_OF_PERICENTER":82.3032,"MEAN_ANOMALY":277.83,"EPHEMERIS_TYPE":0,"CLASSIFICATION_TYPE":"U","NORAD_CAT_ID":45430,"ELEMENT_SET_NO":999,"REV_AT_EPOCH":29181,"BSTAR":-0.0011659,"MEAN_MOTION_DOT":-4.0e-6,"MEAN_MOTION_DDOT":0},{"OBJECT_NAME":"ONEWEB-0031","OBJECT_ID":"2020-020H","EPOCH":"2026-03-26T09:43:46.554816","MEAN_MOTION":13.1141585,"ECCENTRICITY":0.0002062,"INCLINATION":87.8885,"RA_OF_ASC_NODE":37.5328,"ARG_OF_PERICENTER":79.108,"MEAN_ANOMALY":281.028,"EPHEMERIS_TYPE":0,"CLASSIFICATION_TYPE":"U","NORAD_CAT_ID":45431,"ELEMENT_SET_NO":999,"REV_AT_EPOCH":29180,"BSTAR":0.00064361,"MEAN_MOTION_DOT":2.41e-6,"MEAN_MOTION_DDOT":0},{"OBJECT_NAME":"ONEWEB-0027","OBJECT_ID":"2020-020J","EPOCH":"2026-03-26T09:12:21.082176","MEAN_MOTION":13.17650981,"ECCENTRICITY":0.0002094,"INCLINATION":87.9185,"RA_OF_ASC_NODE":22.2862,"ARG_OF_PERICENTER":70.0196,"MEAN_ANOMALY":290.1161,"EPHEMERIS_TYPE":0,"CLASSIFICATION_TYPE":"U","NORAD_CAT_ID":45432,"ELEMENT_SET_NO":999,"REV_AT_EPOCH":29545,"BSTAR":2.8942e-5,"MEAN_MOTION_DOT":2.4e-7,"MEAN_MOTION_DDOT":0},{"OBJECT_NAME":"ONEWEB-0064","OBJECT_ID":"2020-020K","EPOCH":"2026-03-26T09:41:20.177664","MEAN_MOTION":13.11415987,"ECCENTRICITY":0.0002016,"INCLINATION":87.8885,"RA_OF_ASC_NODE":37.5236,"ARG_OF_PERICENTER":77.1183,"MEAN_ANOMALY":283.017,"EPHEMERIS_TYPE":0,"CLASSIFICATION_TYPE":"U","NORAD_CAT_ID":45433,"ELEMENT_SET_NO":999,"REV_AT_EPOCH":29183,"BSTAR":0.00092456,"MEAN_MOTION_DOT":3.4e-6,"MEAN_MOTION_DDOT":0},{"OBJECT_NAME":"ONEWEB-0018","OBJECT_ID":"2020-020L","EPOCH":"2026-03-26T08:37:51.047040","MEAN_MOTION":13.11419503,"ECCENTRICITY":0.000209,"INCLINATION":87.8895,"RA_OF_ASC_NODE":37.5306,"ARG_OF_PERICENTER":90.8576,"MEAN_ANOMALY":269.2792,"EPHEMERIS_TYPE":0,"CLASSIFICATION_TYPE":"U","NORAD_CAT_ID":45434,"ELEMENT_SET_NO":999,"REV_AT_EPOCH":29177,"BSTAR":-0.0011185,"MEAN_MOTION_DOT":-3.84e-6,"MEAN_MOTION_DDOT":0},{"OBJECT_NAME":"ONEWEB-0083","OBJECT_ID":"2020-020M","EPOCH":"2026-03-26T08:24:25.548480","MEAN_MOTION":13.11416279,"ECCENTRICITY":0.0001966,"INCLINATION":87.8903,"RA_OF_ASC_NODE":37.521,"ARG_OF_PERICENTER":80.8665,"MEAN_ANOMALY":279.2685,"EPHEMERIS_TYPE":0,"CLASSIFICATION_TYPE":"U","NORAD_CAT_ID":45435,"ELEMENT_SET_NO":999,"REV_AT_EPOCH":29181,"BSTAR":-0.0012231,"MEAN_MOTION_DOT":-4.21e-6,"MEAN_MOTION_DDOT":0},{"OBJECT_NAME":"ONEWEB-0095","OBJECT_ID":"2020-020N","EPOCH":"2026-03-26T10:01:02.515872","MEAN_MOTION":13.11413941,"ECCENTRICITY":0.0001729,"INCLINATION":87.8894,"RA_OF_ASC_NODE":37.5158,"ARG_OF_PERICENTER":55.9638,"MEAN_ANOMALY":304.1653,"EPHEMERIS_TYPE":0,"CLASSIFICATION_TYPE":"U","NORAD_CAT_ID":45436,"ELEMENT_SET_NO":999,"REV_AT_EPOCH":29182,"BSTAR":-0.00084989,"MEAN_MOTION_DOT":-2.89e-6,"MEAN_MOTION_DDOT":0}]
